OBJECT_NAME,OBJECT_ID,EPOCH,MEAN_MOTION,ECCENTRICITY,INCLINATION,RA_OF_ASC_NODE,ARG_OF_PERICENTER,MEAN_ANOMALY,EPHEMERIS_TYPE,CLASSIFICATION_TYPE,NORAD_CAT_ID,ELEMENT_SET_NO,REV_AT_EPOCH,BSTAR,MEAN_MOTION_DOT,MEAN_MOTION_DDOT
ENMAP,2022-033C,2026-07-13T13:19:17.037120,14.74940959,.00013327,97.9796,276.4297,79.6792,280.4567,0,U,52159,999,23054,.58086924E-4,.34E-5,0
ARCSAT-1,2022-033E,2026-07-13T12:39:45.345888,15.54256736,.00062826,97.2762,287.2031,101.7148,258.4811,0,U,52161,999,23979,.1255403E-3,.8096E-4,0
GLOBAL-18,2022-034B,2026-07-13T05:31:33.106656,15.47165251,.000435,52.9804,132.0865,18.3325,341.7837,0,U,52196,999,24099,.29288E-3,.14709E-3,0
GAOFEN-3 03,2022-035A,2026-07-13T14:14:21.207264,14.42217949,.00017506,98.4064,202.7903,88.6977,271.4413,0,U,52200,999,22465,.9469854E-5,-.12E-6,0
DAQI-1,2022-039A,2026-07-13T15:23:38.813280,14.57691594,.00038257,98.1481,132.9471,151.6870,208.4538,0,U,52257,999,22579,.10958376E-4,.5E-7,0
BRO-6,2022-047AE,2026-07-13T12:24:14.243328,15.52474827,.00029059,97.3396,286.1119,320.4361,39.6680,0,U,52422,999,23523,.41513341E-3,.25351E-3,0
JILIN-1 GAOFEN 3D27,2022-048B,2026-07-13T14:02:42.926784,15.82649631,.00051139,97.5729,311.0614,248.1576,111.9148,0,U,52444,999,23364,.58655777E-3,.123957E-2,0
JILIN-1 GAOFEN 3D28,2022-048C,2026-07-13T14:00:46.334304,15.87535979,.00049402,97.5667,311.3496,245.5978,114.4778,0,U,52445,999,23370,.61783261E-3,.165622E-2,0
VIGORIDE-3,2022-057AE,2026-07-13T10:06:56.454336,15.27538676,.000903,97.6634,335.1000,40.4787,319.7122,0,U,52760,999,22916,.11719228E-3,.308E-4,0
ION SCV-006,2022-057AF,2026-07-13T09:15:07.293312,15.45894120,.00169495,97.6123,344.2794,24.0028,336.2007,0,U,52761,999,23016,.15647764E-3,.7547E-4,0
SHERPA-AC1,2022-057AH,2026-07-13T09:04:47.970336,15.36615440,.00073707,97.6710,344.7069,10.1295,350.0096,0,U,52763,999,22972,.12431932E-3,.4359E-4,0
OMNI-L2,2022-057AR,2026-07-13T14:24:19.736352,14.81435719,.00055362,97.4703,255.1827,226.6334,133.4419,0,U,52771,999,22430,.89863858E-4,.656E-5,0
STEP CUBE LAB-II,2022-065D,2026-07-13T15:59:59.449920,14.63342404,.00074763,98.2253,338.4918,308.0331,52.0196,0,U,52897,999,21537,.11856106E-3,.564E-5,0
RANDEV,2022-065E,2026-07-13T15:51:26.633088,14.63730673,.00068122,98.2239,338.8493,308.8839,51.1755,0,U,52898,999,21512,.95020253E-4,.447E-5,0
SNUGLITE-II,2022-065F,2026-07-13T08:06:29.292192,14.64392439,.00063115,98.2232,339.1269,307.6333,52.4296,0,U,52899,999,21482,.95704327E-4,.457E-5,0
MIMAN,2022-065G,2026-07-13T09:36:23.864544,14.61870704,.0006498,98.2292,336.7554,310.3694,49.6939,0,U,52900,999,21427,.61346865E-4,.259E-5,0
STARLINK-4362,2022-077A,2026-07-13T10:48:18.264096,15.05658675,.00012346,97.2851,11.9970,96.3386,263.7982,0,U,53043,999,21983,.3385002E-4,.432E-5,0
LARES-2,2022-080A,2026-07-11T06:32:52.952640,6.38965058,.00051703,70.1562,297.0691,331.4390,28.5953,0,U,53105,999,9320,0,-.16E-6,0
GREENCUBE (IO-117),2022-080E,2026-07-12T17:00:29.177856,6.42583319,.00090302,70.1415,289.3709,284.1311,75.8345,0,U,53109,999,9370,0,-.3E-7,0
STARLINK-4410,2022-084R,2026-07-13T14:00:01.000224,15.44307587,.00014496,97.6005,256.5971,93.5164,359.2371,0,U,53204,999,585,-.29082903E-1,-.121616E-1,0
COSMOS 2558,2022-089A,2026-07-13T11:04:28.322688,15.81313535,.0003876,97.2250,299.7107,230.3799,129.7128,0,U,53323,999,22197,.51205E-3,.101407E-2,0
TECMS,2022-090A,2026-07-13T14:22:16.563648,15.21226955,.00055564,97.3130,261.9588,89.4591,270.7281,0,U,53346,999,21882,.94214459E-4,.2036E-4,0
DONGPO 02,2022-098J,2026-07-13T15:04:50.075904,15.80794371,.00045483,97.5548,328.2386,218.9585,141.1356,0,U,53452,999,21896,.50929676E-3,.98481E-3,0
DONGPO 01,2022-098K,2026-07-13T00:39:03.043584,15.77718735,.0002908,97.5609,328.0252,210.3911,149.7186,0,U,53453,999,21882,.6145731E-3,.103528E-2,0
STARLINK-4400,2022-099D,2026-07-13T07:07:00.723360,15.05657060,.000159,97.2850,311.9311,121.9426,238.1957,0,U,53468,999,21487,.44511E-5,.8E-7,0
STARLINK-4621,2022-105AE,2026-07-13T15:09:30.186432,15.05658990,.00022611,97.2864,72.2707,105.8938,254.2539,0,U,53676,999,21218,-.28934949E-4,-.474E-5,0
SHERPA-LTC2,2022-107BG,2026-07-13T03:53:27.691584,14.69908951,.03928247,53.2373,110.3577,299.0132,57.2011,0,U,53754,999,20636,.12669626E-3,.2244E-4,0
CENTISPACE-1 S3,2022-108A,2026-07-13T12:59:31.642944,14.61282181,.00107153,53.5339,306.2813,60.8385,299.3661,0,U,53757,999,20538,.63601835E-4,.127E-5,0
CENTISPACE-1 S4,2022-108B,2026-07-13T13:57:33.056640,14.61970942,.00099929,53.5313,303.5068,50.3873,309.7984,0,U,53758,999,20542,.79165459E-4,.209E-5,0
BLUEWALKER-3,2022-111AL,2026-07-13T11:46:12.749376,15.38596562,.00045701,53.2291,270.4558,258.6402,101.4090,0,U,53807,999,21425,.11145255E-3,.3917E-4,0
YUNHAI-1 03,2022-115A,2026-07-13T14:03:34.116192,14.32735749,.00042659,98.5543,192.3989,344.6623,15.4431,0,U,53877,999,19929,.10026816E-3,.229E-5,0
CENTISPACE-1 S5,2022-126A,2026-07-13T14:13:21.335520,14.63054924,.0014443,54.9989,107.2903,121.4152,238.8257,0,U,54020,999,20090,.11125286E-3,.386E-5,0
CENTISPACE-1 S6,2022-126B,2026-07-13T14:22:35.217408,14.62315238,.00162406,54.9991,109.2538,122.5213,237.7352,0,U,54021,999,20086,.90393095E-4,.271E-5,0
OTB-3-GAZELLE,2022-127A,2026-07-13T11:37:29.196480,14.42683642,.00143982,98.3960,185.7900,107.6366,252.6398,0,U,54023,999,19815,.33856341E-4,.69E-6,0
ASO-S,2022-129A,2026-07-13T13:50:15.116640,14.52074368,.0014692,98.2755,199.2800,17.1094,343.0594,0,U,54029,999,19925,.36162481E-4,.102E-5,0
HJ-2E,2022-132A,2026-07-13T15:21:30.827232,15.22681524,.00180227,97.3799,198.5467,276.5601,83.3584,0,U,54035,999,20844,.1923791E-3,.4429E-4,0
COSMOS 2561,2022-137A,2026-07-13T12:46:16.597920,15.52345255,.0008158,96.9177,252.5562,288.2828,71.7538,0,U,54109,999,21043,.13754E-3,.8296E-4,0
GONETS-M 23,2022-139A,2026-07-13T15:58:42.523680,12.42891889,.00220728,82.5093,331.8386,161.7334,198.4544,0,U,54150,999,16893,.49216953E-4,.17E-6,0
GONETS-M 24,2022-139B,2026-07-13T13:24:00.174240,12.42892456,.00171351,82.5010,330.9471,171.5637,188.5734,0,U,54151,999,16892,-.13182396E-4,.8E-7,0
GONETS-M 25,2022-139C,2026-07-13T13:04:27.776352,12.42890814,.00210693,82.5075,331.6561,170.5954,189.5525,0,U,54152,999,16892,-.42496291E-4,.4E-7,0
SKIF-D,2022-139D,2026-07-13T00:55:53.253120,5.00430161,.00074342,89.9493,96.6607,188.4298,171.6266,0,U,54153,999,6540,0,.8E-7,0
MATS,2022-147A,2026-07-13T12:04:33.869856,15.05496478,.00141224,97.6828,195.9884,108.3401,251.9363,0,U,54227,999,20172,.10040349E-3,.1383E-4,0
EOS-6 (OCEANSAT-3),2022-158A,2026-07-13T13:51:52.373664,14.46983846,.00003363,98.3549,292.4227,137.3252,222.7967,0,U,54361,999,19165,.42096744E-4,.109E-5,0
DONGPO 09,2022-167D,2026-07-13T14:06:39.038112,15.36910398,.00028954,97.6910,6.7873,56.0909,304.0610,0,U,54685,999,19950,.19058649E-3,.6791E-4,0
DONGPO 08,2022-167E,2026-07-13T14:45:51.831072,15.34163952,.0009313,97.6874,3.8675,78.6832,281.5456,0,U,54686,999,19937,.19474544E-3,.6362E-4,0
2022-167F,2022-167F,2026-07-13T16:51:16.307712,16.15641331,.0009652,97.6356,26.3570,200.8053,159.2842,0,U,54687,999,20107,.55733E-3,.759342E-2,.35689E-3
DONGPO 10,2022-167H,2026-07-13T14:35:16.440288,15.34980213,.00050921,97.6955,5.8740,33.3896,326.7666,0,U,54689,999,19941,.18916712E-3,.6334E-4,0
JILIN-1 GAOFEN 03D48,2022-167P,2026-07-13T15:46:30.371808,15.35771759,.00065811,97.6890,5.3129,35.2718,324.8959,0,U,54695,999,19945,.18844786E-3,.6474E-4,0
STAR VIBE,2023-001A,2026-07-13T15:07:08.406624,15.43325318,.0005644,97.3162,259.2112,36.1566,324.0062,0,U,55009,999,19630,.19720454E-3,.8703E-4,0
BRO-8,2023-001C,2026-07-13T15:33:38.044800,15.50684410,.00049909,97.3193,260.2413,45.5752,314.5907,0,U,55011,999,19630,.3361161E-3,.19229E-3,0
CONNECTA T1.2,2023-001D,2026-07-12T16:58:48.345600,15.52743920,.0004122,97.3248,264.8832,16.9652,343.1738,0,U,55012,999,19650,.46967654E-3,.28991E-3,0
BIRKELAND,2023-001G,2026-07-13T15:38:52.233216,15.40521562,.00065916,97.3340,262.6954,26.2040,333.9539,0,U,55015,999,19642,.13801448E-3,.5519E-4,0
ION SCV-008,2023-001AU,2026-07-13T06:56:42.143424,15.28866234,.00131855,97.5722,291.0497,280.7353,79.2402,0,U,55051,999,19532,.12981942E-3,.357E-4,0
ION SCV-007,2023-001BD,2026-07-13T14:36:37.420416,14.77575365,.00110064,97.8994,257.0981,247.8359,112.1684,0,U,55060,999,19015,.34172101E-4,.193E-5,0
HUYGENS,2023-001CN,2026-07-13T15:38:59.560800,15.40520496,.00085959,97.3244,261.8908,358.7896,1.3328,0,U,55093,999,19644,.13320746E-3,.5326E-4,0
SHARJAHSAT-1,2023-001CZ,2026-07-13T15:41:01.620672,15.50078240,.00049555,97.3160,263.8030,26.1172,334.0328,0,U,55104,999,19659,.21414369E-3,.11947E-3,0
HORUS 1,2023-025A,2026-07-13T14:58:24.380256,15.23528152,.00028696,97.3458,268.6624,115.6390,244.5144,0,U,55690,999,18807,.13530205E-3,.3162E-4,0
HORUS 2,2023-032A,2026-07-13T15:49:18.244416,15.23334743,.00009841,97.3530,269.5276,134.3383,225.7935,0,U,55844,999,18551,.13557159E-3,.315E-4,0
GLOBAL-19,2023-041B,2026-07-13T00:05:06.750240,15.38645913,.00093255,42.0024,51.2695,204.1950,155.8453,0,U,55982,999,18590,.25300389E-3,.9634E-4,0
ION SCV-010,2023-054Q,2026-07-13T15:30:25.559424,15.26416303,.00145394,97.3748,83.8090,108.9940,251.2876,0,U,56192,999,18023,.10957668E-3,.2787E-4,0
TELEOS-2,2023-057C,2026-07-13T02:00:06.410592,14.96416588,.00009414,9.9892,15.6203,275.2393,84.7713,0,U,56310,999,17668,.22341609E-3,.3291E-4,0
SNIPE 4,2023-072B,2026-07-13T14:39:35.225568,15.43352235,.00046216,97.5228,41.4708,211.8366,148.2602,0,U,56744,999,17418,.30268785E-3,.13419E-3,0
SNIPE 2,2023-072C,2026-07-13T15:19:40.962720,15.48170497,.00031022,97.5216,44.7331,241.4608,118.6330,0,U,56745,999,17433,.335914E-3,.17581E-3,0
2023-072G,2023-072G,2026-07-13T15:19:49.675296,15.52068496,.00022702,97.4871,43.5685,210.4729,149.6391,0,U,56749,999,17456,.3185352E-3,.1913E-3,0
GEISAT PRECURSOR,2023-084C,2026-07-13T13:23:30.989184,15.34995451,.00043494,97.6250,336.3899,237.4343,122.6480,0,U,56934,999,17157,.13177926E-3,.4389E-4,0
